0 COSMOS 1400
1 13402U 82079A   13281.70548609  .00021469  00000-0  35658-3 0   656
2 13402 081.1265 030.8086 0004916 115.4092 003.9683 15.51941230710864
0 COSMOS 1400
1 13402U 82079A   13282.40069962  .00030767  00000-0  50971-3 0   661
2 13402 081.1264 029.9515 0004883 112.7446 288.3791 15.51994995710972
0 COSMOS 1400
1 13402U 82079A   13282.86976875  .00026937  00000-0  44610-3 0   679
2 13402 081.1264 029.3725 0004829 110.4286 029.8287 15.52013141711049
0 COSMOS 1400
1 13402U 82079A   13283.90133154  .00026132  00000-0  43207-3 0   689
2 13402 081.1261 028.0999 0004748 106.4373 033.8786 15.52061011711203
0 COSMOS 1400
1 13402U 82079A   13285.37015753  .00022618  00000-0  37315-3 0   695
2 13402 081.1264 026.2877 0004736 101.8731 320.3884 15.52128755711432
0 COSMOS 1400
1 13402U 82079A   13286.74104744  .00022864  00000-0  37648-3 0   700
2 13402 081.1269 024.5962 0004740 097.0548 060.5852 15.52181888711647
0 COSMOS 1400
1 13402U 82079A   13287.76538955  .00028754  00000-0  47247-3 0   719
2 13402 081.1273 023.3326 0004709 093.5909 024.4036 15.52229657711808
0 COSMOS 1400
1 13402U 82079A   13290.26132906  .00029638  00000-0  48457-3 0   721
2 13402 081.1280 020.2531 0004771 087.5737 289.6595 15.52367288712181
0 COSMOS 1400
1 13402U 82079A   13291.29991273  .00027413  00000-0  44734-3 0   739
2 13402 081.1275 018.9724 0004698 083.1070 334.7419 15.52425505712356
0 COSMOS 1400
1 13402U 82079A   13292.39341514  .00026480  00000-0  43129-3 0   749
2 13402 081.1267 017.6222 0004661 079.0490 326.3559 15.52480741712520
0 COSMOS 1400
1 13402U 82079A   13293.82822117  .00028627  00000-0  46508-3 0   751
2 13402 081.1261 015.8513 0004685 074.8087 064.7592 15.52546780712748
0 COSMOS 1400
1 13402U 82079A   13295.35781112  .00030543  00000-0  49481-3 0   764
2 13402 081.1257 013.9630 0004660 070.7834 332.7534 15.52621464712983
